STARLINK-5372           
1 54838U 22177U   23017.58334491  .00094267  00000+0  10260-2 0  9995
2 54838  42.9998 253.2846 0001393 265.7787 335.8342 15.62411731  1302
STARLINK-5110           
1 54839U 22177V   23017.58334491 -.01142354  00000+0 -13705-1 0  9996
2 54839  42.9966 253.2758 0001387 259.8216 343.8157 15.62689438  1308
STARLINK-5368           
1 54840U 22177W   23017.58334491  .00098165  00000+0  10635-2 0  9995
2 54840  42.9999 253.2771 0001383 265.2278 339.3897 15.62513545  1302
STARLINK-4659           
1 54841U 22177X   23017.58334491 -.01143364  00000+0 -13771-1 0  9994
2 54841  42.9953 253.2792 0001390 260.5014 340.1579 15.62592418  1303
STARLINK-5387           
1 54842U 22177Y   23017.66667824 -.01176475  00000+0 -14207-1 0  9997
2 54842  42.9972 252.7717 0001483 260.6355  95.3748 15.62602155  3352
STARLINK-5304           
1 54843U 22177Z   23017.58334491 -.01138109  00000+0 -13667-1 0  9991
2 54843  42.9997 253.2831 0001303 265.8081 336.7510 15.62656428  1301
STARLINK-5388           
1 54844U 22177AA  23017.66667824 -.01148564  00000+0 -13940-1 0  9990
2 54844  42.9954 252.7612 0002336 269.7654  89.8656 15.62401508  3353
STARLINK-5082           
1 54845U 22177AB  23017.66667824 -.01175696  00000+0 -14214-1 0  9992
2 54845  42.9958 252.7719 0001546 261.3761  93.6512 15.62570490  3356
STARLINK-5360           
1 54846U 22177AC  23017.58334491 -.01188761  00000+0 -14230-1 0  9990
2 54846  43.0002 253.2690 0001403 261.6120 346.0095 15.62853504  1301
STARLINK-5061           
1 54847U 22177AD  23017.91667824 -.00788857  00000+0 -58120-2 0  9995
2 54847  42.9952 250.2094 0001532 276.1113 120.4722 15.74318691  3405
STARLINK-5432           
1 54848U 22177AE  23017.58334491 -.00007624  00000+0 -54753-4 0  9996
2 54848  42.9991 253.1308 0001730 251.4374  49.4996 15.71351163  1302
STARLINK-5434           
1 54849U 22177AF  23017.58334491 -.01142216  00000+0 -13594-1 0  9990
2 54849  42.9956 253.2570 0001421 258.0296 352.2011 15.62891518  1305
STARLINK-5087           
1 54850U 22177AG  23017.58334491  .00003831  00000+0  32659-4 0  9994
2 54850  42.9986 253.1299 0001985 241.2165  60.9125 15.71345350  1308
STARLINK-5084           
1 54851U 22177AH  23017.58334491  .00015521  00000+0  12156-3 0  9993
2 54851  42.9987 253.1313 0001798 245.1170  56.3873 15.71359851  1308
STARLINK-5418           
1 54852U 22177AJ  23017.83334491 -.00035771  00000+0 -27032-3 0  9992
2 54852  42.9991 251.6182 0001956 257.1544  22.6882 15.71369858  3389
STARLINK-5427           
1 54853U 22177AK  23017.58334491  .00025522  00000+0  19758-3 0  9992
2 54853  42.9989 253.1274 0001828 251.1502  51.5652 15.71342288  1306
STARLINK-5419           
1 54854U 22177AL  23017.66667824  .00050068  00000+0  38342-3 0  9994
2 54854  42.9993 252.6188 0002097 242.5333 174.5570 15.71325725  3354
STARLINK-5416           
1 54855U 22177AM  23017.58334491  .00024959  00000+0  19326-3 0  9998
2 54855  42.9986 253.1240 0001746 256.7539  47.7394 15.71348414  1305
STARLINK-5086           
1 54856U 22177AN  23017.58334491  .00024470  00000+0  18962-3 0  9992
2 54856  42.9992 253.1100 0001864 248.2570  61.0134 15.71339518  1306
STARLINK-5078           
1 54857U 22177AP  23017.58334491  .00020042  00000+0  15603-3 0  9993
2 54857  42.9992 253.1251 0002016 237.9717  65.3515 15.71336478  1304
STARLINK-5407           
1 54858U 22177AQ  23017.58334491  .00017608  00000+0  13752-3 0  9991
2 54858  42.9992 253.1176 0002195 250.4182  55.8786 15.71339746  1300
STARLINK-5409           
1 54859U 22177AR  23017.58334491  .00023900  00000+0  18525-3 0  9997
2 54859  42.9988 253.1128 0001807 243.2094  65.4571 15.71345562  1306
STARLINK-5406           
1 54860U 22177AS  23017.58334491  .00016422  00000+0  12853-3 0  9998
2 54860  42.9995 253.1074 0001857 259.9859  49.8899 15.71336711  1309
STARLINK-5400           
1 54861U 22177AT  23017.58334491  .00014150  00000+0  11125-3 0  9996
2 54861  42.9995 253.1182 0002016 241.0238  64.6840 15.71337344  1305
STARLINK-5403           
1 54862U 22177AU  23017.58334491  .00035282  00000+0  27167-3 0  9999
2 54862  42.9998 253.1209 0001831 250.3906  57.1046 15.71327555  1306
STARLINK-5405           
1 54863U 22177AV  23017.66667824  .00025520  00000+0  19753-3 0  9994
2 54863  42.9990 252.6122 0001809 242.4091 177.6435 15.71346240  3358
STARLINK-5359           
1 54864U 22177AW  23017.58334491  .00004747  00000+0  39634-4 0  9996
2 54864  43.0000 253.1109 0001382 255.6276  55.4652 15.71350215  1305
STARLINK-5411           
1 54865U 22177AX  23017.58334491  .00022763  00000+0  17667-3 0  9996
2 54865  42.9992 253.1160 0001864 238.5156  68.3745 15.71339279  1306
STARLINK-5398           
1 54866U 22177AY  23017.58334491  .00028036  00000+0  21673-3 0  9998
2 54866  42.9996 253.1019 0001612 260.1530  52.7016 15.71332177  1300
STARLINK-5396           
1 54867U 22177AZ  23017.58334491  .00027500  00000+0  21266-3 0  9992
2 54867  42.9991 253.1071 0001691 249.1752  61.2904 15.71333108  1300
STARLINK-5379           
1 54868U 22177BA  23017.58334491  .00019571  00000+0  15245-3 0  9992
2 54868  42.9996 253.0967 0002677 252.4275  61.6170 15.71335829  1302
STARLINK-5402           
1 54869U 22177BB  23017.58334491  .00024557  00000+0  19029-3 0  9997
2 54869  42.9991 253.1029 0001889 235.8052  76.4444 15.71338215  1300
STARLINK-5401           
1 54870U 22177BC  23017.58334491  .00039439  00000+0  30313-3 0  9993
2 54870  42.9993 253.0988 0001906 237.4965  75.9518 15.71326694  1302
STARLINK-5397           
1 54871U 22177BD  23017.66667824 -.00010072  00000+0 -73405-4 0  9996
2 54871  42.9994 252.6021 0001600 254.7306 168.8791 15.71370518  3221
STARLINK-5390           
1 54872U 22177BE  23017.66667824  .00066658  00000+0  50863-3 0  9998
2 54872  43.0037 252.8479 0001987 262.8806  66.8915 15.71311318  3222
STARLINK-5091           
1 54873U 22177BF  23017.58334491  .00033720  00000+0  25975-3 0  9991
2 54873  42.9989 253.0973 0001935 248.6543  65.9765 15.71335624  1308
SHIYAN 10-02 (SY-10 02) 
1 54878U 22178A   22363.79780338  .00077813 -29724-6  44292-2 0  9993
2 54878  50.9483 118.8361 7526050 225.2073  62.4530  2.01137286    41
CZ-3B R/B               
1 54879U 22178B   23017.33911641  .00009892  00000+0  16608-2 0  9994
2 54879  51.2507 114.4133 7525605 229.1367  36.5814  1.99377472   402
EROS C3                 
1 54880U 22179A   23017.27053620  .00000261  00000+0  00000+0 0  9991
2 54880 139.3609 325.8273 0009149  28.2670  71.8469 15.24703861  2741
2023-001A               
1 55009U 23001A   23017.43070457  .00007185  00000+0  42305-3 0  9995
2 55009  97.5018  79.2984 0010338 177.4352 182.6933 15.11877334  2244
2023-001B               
1 55010U 23001B   23017.42991878  .00011903  00000+0  69481-3 0  9992
2 55010  97.5042  79.3039 0010767 179.0222 181.1032 15.12033353  2245
2023-001C               
1 55011U 23001C   23017.42960139  .00011229  00000+0  65529-3 0  9999
2 55011  97.5069  79.3091 0011192 180.5866 179.5353 15.12055651  2249
2023-001D               
1 55012U 23001D   23017.42858732  .00008662  00000+0  50528-3 0  9995
2 55012  97.5090  79.3144 0011958 179.5158 180.6086 15.12134813  2249
2023-001E               
1 55013U 23001E   23017.42746197  .00014605  00000+0  84372-3 0  9995
2 55013  97.5003  79.2979 0010564 168.0035 192.1449 15.12361006  2245
2023-001F               
1 55014U 23001F   23017.42719551  .00015497  00000+0  89409-3 0  9996
2 55014  97.5040  79.3073 0011402 175.3213 184.8126 15.12387551  2247
2023-001G               
1 55015U 23001G   23017.42722922  .00009478  00000+0  54989-3 0  9990
2 55015  97.5077  79.3142 0011867 175.7232 184.4102 15.12305704  2245
2023-001H               
1 55016U 23001H   23017.42754867  .00006693  00000+0  39047-3 0  9998
2 55016  97.5005  79.3004 0011635 173.3428 186.7959 15.12220033  2244
2023-001J               
1 55017U 23001J   23017.16186123  .00014241  00000+0  82085-3 0  9992
2 55017  97.4989  79.0377 0011020 171.3284 188.8139 15.12444279  2200
2023-001K               
1 55018U 23001K   23017.16185440  .00016237  00000+0  93544-3 0  9993
2 55018  97.5026  79.0447 0011389 170.6987 189.4457 15.12429594  2205
2023-001L               
1 55019U 23001L   23017.42644486  .00013443  00000+0  77513-3 0  9997
2 55019  97.5052  79.3107 0011658 172.6802 187.4601 15.12439390  2246
2023-001M               
1 55020U 23001M   23017.42618446  .00008971  00000+0  51903-3 0  9991
2 55020  97.5021  79.3046 0011716 167.6366 192.5155 15.12421730  2240
2023-001N               
1 55021U 23001N   23017.42629905  .00007697  00000+0  44653-3 0  9992
2 55021  97.5021  79.3033 0011821 164.4607 195.6989 15.12372938  2241
2023-001P               
1 55022U 23001P   23017.16093517  .00008628  00000+0  49834-3 0  9999
2 55022  97.5024  79.0446 0012000 162.4913 197.6733 15.12492772  2202
2023-001Q               
1 55023U 23001Q   23017.16147980  .00012029  00000+0  69477-3 0  9999
2 55023  97.5053  79.0524 0011769 166.2582 193.8971 15.12405143  2205
2023-001R               
1 55024U 23001R   23017.42552428  .00007518  00000+0  43468-3 0  9995
2 55024  97.5046  79.3107 0011890 170.3856 189.7604 15.12501661  2246
2023-001S               
1 55025U 23001S   23017.42522060  .00009832  00000+0  56664-3 0  9998
2 55025  97.5055  79.3136 0012051 168.2346 191.9169 15.12533203  2247
2023-001T               
1 55026U 23001T   23017.42542597  .00009438  00000+0  54461-3 0  9991
2 55026  97.5017  79.3025 0012551 160.7762 199.3945 15.12495364  2246
2023-001U               
1 55027U 23001U   23017.16065317  .00011424  00000+0  65826-3 0  9998
2 55027  97.5013  79.0431 0011994 167.4897 192.6634 15.12499787  2204
2023-001V               
1 55028U 23001V   23017.42484042  .00009480  00000+0  54582-3 0  9994
2 55028  97.5027  79.3050 0012931 159.9334 200.2408 15.12571266  2246
